CCSDS_OEM_VERS = 1.0
CREATION_DATE  = 2017-05-11T11:51:50
ORIGINATOR     = GMAT USER

META_START
OBJECT_NAME          = MOPSSat_alt_35785_km_RAAN_270_029
OBJECT_ID            = SatId
CENTER_NAME          = Earth
REF_FRAME            = EME2000
TIME_SYSTEM          = UTC
START_TIME           = 2017-01-01T00:00:00.000
USEABLE_START_TIME   = 2017-01-01T00:00:00.000
USEABLE_STOP_TIME    = 2017-01-02T00:00:00.000
STOP_TIME            = 2017-01-02T00:00:00.000
INTERPOLATION        = Lagrange
INTERPOLATION_DEGREE = 7 
META_STOP


                                                                                   

2017-01-01T07:10:50.000   4.009957059477727e+04   1.303188470248675e+04  -1.063464901844946e+00  -9.503755079634255e-01   2.924045256788053e+00  -4.151383747501344e-05
2017-01-01T07:11:00.000   4.009005617861193e+04   1.306112168678079e+04  -1.063879808666120e+00  -9.525076697800883e-01   2.923351432038000e+00  -4.146751871527580e-05
2017-01-01T07:11:10.000   4.008052044330032e+04   1.309035172523667e+04  -1.064294252023038e+00  -9.546393252689248e-01   2.922656052720630e+00  -4.142114410862107e-05
2017-01-01T07:11:20.000   4.007096339388536e+04   1.311957480238740e+04  -1.064708231358435e+00  -9.567704733021797e-01   2.921959119203548e+00  -4.137471368033605e-05
2017-01-01T07:11:30.000   4.006138503544310e+04   1.314879090270440e+04  -1.065121746114378e+00  -9.589011127476049e-01   2.921260631856764e+00  -4.132822745586405e-05
2017-01-01T07:11:40.000   4.005178537305375e+04   1.317800001068317e+04  -1.065534795733472e+00  -9.610312424747098e-01   2.920560591050600e+00  -4.128168546066670e-05
2017-01-01T07:11:50.000   4.004216441193035e+04   1.320720211045917e+04  -1.065947379653465e+00  -9.631608613267449e-01   2.919858997165057e+00  -4.123508772084061e-05
2017-01-01T07:12:00.000   4.003252215726342e+04   1.323639718627351e+04  -1.066359497313792e+00  -9.652899681546668e-01   2.919155850578500e+00  -4.118843426237156e-05
2017-01-01T07:12:10.000   4.002285861427843e+04   1.326558522229967e+04  -1.066771148153143e+00  -9.674185618045001e-01   2.918451151671835e+00  -4.114172511141034e-05
2017-01-01T07:12:20.000   4.001317378801382e+04   1.329476620331507e+04  -1.067182331618934e+00  -9.695466411663101e-01   2.917744900812332e+00  -4.109496029320615e-05
2017-01-01T07:12:30.000   4.000346768354225e+04   1.332394011403112e+04  -1.067593047157851e+00  -9.716742051253510e-01   2.917037098369758e+00  -4.104813983316922e-05
2017-01-01T07:12:40.000   3.999374030592083e+04   1.335310693924525e+04  -1.068003294218004e+00  -9.738012525731471e-01   2.916327744712743e+00  -4.100126375663256e-05
2017-01-01T07:12:50.000   3.998399166031421e+04   1.338226666346211e+04  -1.068413072243548e+00  -9.759277823798712e-01   2.915616840217758e+00  -4.095433208944014e-05
2017-01-01T07:13:00.000   3.997422175190403e+04   1.341141927117505e+04  -1.068822380678699e+00  -9.780537934148756e-01   2.914904385262514e+00  -4.090734485751556e-05
2017-01-01T07:13:10.000   3.996443058588774e+04   1.344056474686577e+04  -1.069231218967700e+00  -9.801792845466583e-01   2.914190380225874e+00  -4.086030208685453e-05
2017-01-01T07:13:20.000   3.995461816757559e+04   1.346970307472501e+04  -1.069639586550963e+00  -9.823042546224985e-01   2.913474825494927e+00  -4.081320380399726e-05
2017-01-01T07:13:30.000   3.994478450226106e+04   1.349883423902911e+04  -1.070047482870297e+00  -9.844287024959198e-01   2.912757721455537e+00  -4.076605003539955e-05
2017-01-01T07:13:40.000   3.993492959527167e+04   1.352795822399156e+04  -1.070454907366841e+00  -9.865526270158624e-01   2.912039068496051e+00  -4.071884080767918e-05
2017-01-01T07:13:50.000   3.992505345174651e+04   1.355707501442032e+04  -1.070861859490262e+00  -9.886760270746167e-01   2.911318866991075e+00  -4.067157614653808e-05
2017-01-01T07:14:00.000   3.991515607685851e+04   1.358618459506042e+04  -1.071268338689557e+00  -9.907989015598840e-01   2.910597117317674e+00  -4.062425607783957e-05
2017-01-01T07:14:10.000   3.990523747576440e+04   1.361528695074278e+04  -1.071674344415133e+00  -9.929212493656301e-01   2.909873819851748e+00  -4.057688062736407e-05
2017-01-01T07:14:20.000   3.989529765373044e+04   1.364438206600626e+04  -1.072079876113495e+00  -9.950430693645219e-01   2.909148974977168e+00  -4.052944982142743e-05
2017-01-01T07:14:30.000   3.988533661603987e+04   1.367346992537857e+04  -1.072484933231211e+00  -9.971643604284099e-01   2.908422583079052e+00  -4.048196368642085e-05
2017-01-01T07:14:40.000   3.987535436799189e+04   1.370255051337582e+04  -1.072889515214886e+00  -9.992851214283022e-01   2.907694644543678e+00  -4.043442224881224e-05
2017-01-01T07:14:50.000   3.986535091500035e+04   1.373162381422392e+04  -1.073293621507341e+00  -1.001405351214041e+00   2.906965159765683e+00  -4.038682553559832e-05
2017-01-01T07:15:00.000   3.985532626246186e+04   1.376068981223428e+04  -1.073697251552785e+00  -1.003525048641704e+00   2.906234129138448e+00  -4.033917357369422e-05
2017-01-01T07:15:10.000   3.984528041580736e+04   1.378974849165569e+04  -1.074100404794776e+00  -1.005644212562801e+00   2.905501553057854e+00  -4.029146639017343e-05
2017-01-01T07:15:20.000   3.983521338027557e+04   1.381879983733014e+04  -1.074503080685315e+00  -1.007762841872103e+00   2.904767431905771e+00  -4.024370401120388e-05
2017-01-01T07:15:30.000   3.982512516113937e+04   1.384784383403694e+04  -1.074905278675744e+00  -1.009880935459810e+00   2.904031766066550e+00  -4.019588646311115e-05
2017-01-01T07:15:40.000   3.981501576365496e+04   1.387688046664116e+04  -1.075306998218814e+00  -1.011998492222373e+00   2.903294555923335e+00  -4.014801377214073e-05
2017-01-01T07:15:50.000   3.980488519318988e+04   1.390590971971653e+04  -1.075708238763419e+00  -1.014115511035001e+00   2.902555801867384e+00  -4.010008596505815e-05
2017-01-01T07:16:00.000   3.979473345512887e+04   1.393493157782576e+04  -1.076108999758520e+00  -1.016231990772094e+00   2.901815504291206e+00  -4.005210306870859e-05
2017-01-01T07:16:10.000   3.978456055487257e+04   1.396394602552006e+04  -1.076509280653128e+00  -1.018347930307217e+00   2.901073663588475e+00  -4.000406511000971e-05
2017-01-01T07:16:20.000   3.977436649793827e+04   1.399295304706119e+04  -1.076909080892513e+00  -1.020463328492824e+00   2.900330280161364e+00  -3.995597211643173e-05
2017-01-01T07:16:30.000   3.976415128982541e+04   1.402195262679632e+04  -1.077308399923328e+00  -1.022578184187596e+00   2.899585354410747e+00  -3.990782411535774e-05
2017-01-01T07:16:40.000   3.975391493606916e+04   1.405094474900740e+04  -1.077707237191550e+00  -1.024692496245460e+00   2.898838886740107e+00  -3.985962113433854e-05
2017-01-01T07:16:50.000   3.974365744200569e+04   1.407992939857642e+04  -1.078105592151627e+00  -1.026806263564102e+00   2.898090877538410e+00  -3.981136319997884e-05
2017-01-01T07:17:00.000   3.973337881300732e+04   1.410890656031847e+04  -1.078503464257303e+00  -1.028919485036326e+00   2.897341327197259e+00  -3.976305033905294e-05
2017-01-01T07:17:10.000   3.972307905442203e+04   1.413787621915392e+04  -1.078900852963992e+00  -1.031032159562617e+00   2.896590236106482e+00  -3.971468257821671e-05
2017-01-01T07:17:20.000   3.971275817173555e+04   1.416683835964510e+04  -1.079297757722375e+00  -1.033144286017346e+00   2.895837604665951e+00  -3.966625994477877e-05
2017-01-01T07:17:30.000   3.970241617043793e+04   1.419579296637878e+04  -1.079694177983696e+00  -1.035255863276667e+00   2.895083433275850e+00  -3.961778246606454e-05
2017-01-01T07:17:40.000   3.969205305605328e+04   1.422474002388082e+04  -1.080090113198576e+00  -1.037366890212293e+00   2.894327722338854e+00  -3.956925016955810e-05
2017-01-01T07:17:50.000   3.968166883413304e+04   1.425367951663985e+04  -1.080485562817366e+00  -1.039477365693219e+00   2.893570472259620e+00  -3.952066308286563e-05
2017-01-01T07:18:00.000   3.967126351024434e+04   1.428261142913566e+04  -1.080880526290516e+00  -1.041587288587797e+00   2.892811683443958e+00  -3.947202123366504e-05
2017-01-01T07:18:10.000   3.966083708996650e+04   1.431153574584970e+04  -1.081275003068720e+00  -1.043696657764501e+00   2.892051356298560e+00  -3.942332464968943e-05
2017-01-01T07:18:20.000   3.965038957885435e+04   1.434045245136877e+04  -1.081668992604339e+00  -1.045805472099483e+00   2.891289491228336e+00  -3.937457335855241e-05
2017-01-01T07:18:30.000   3.963992098246228e+04   1.436936153031578e+04  -1.082062494350449e+00  -1.047913730471532e+00   2.890526088638156e+00  -3.932576738786471e-05
2017-01-01T07:18:40.000   3.962943130634433e+04   1.439826296734980e+04  -1.082455507760839e+00  -1.050021431762072e+00   2.889761148932878e+00  -3.927690676523292e-05
2017-01-01T07:18:50.000   3.961892055602851e+04   1.442715674723467e+04  -1.082848032290934e+00  -1.052128574860169e+00   2.888994672515448e+00  -3.922799151814811e-05
2017-01-01T07:19:00.000   3.960838873705475e+04   1.445604285473592e+04  -1.083240067396402e+00  -1.054235158655008e+00   2.888226659789686e+00  -3.917902167415408e-05
2017-01-01T07:19:10.000   3.959783585497901e+04   1.448492127461036e+04  -1.083631612533017e+00  -1.056341182035144e+00   2.887457111160578e+00  -3.912999726086872e-05
2017-01-01T07:19:20.000   3.958726191538241e+04   1.451379199157690e+04  -1.084022667156238e+00  -1.058446643886362e+00   2.886686027034947e+00  -3.908091830601794e-05
2017-01-01T07:19:30.000   3.957666692388116e+04   1.454265499029401e+04  -1.084413230720938e+00  -1.060551543090042e+00   2.885913407822177e+00  -3.903178483749066e-05
2017-01-01T07:19:40.000   3.956605088609498e+04   1.457151025544441e+04  -1.084803302682532e+00  -1.062655878529331e+00   2.885139253931898e+00  -3.898259688318840e-05
2017-01-01T07:19:50.000   3.955541380778878e+04   1.460035777135565e+04  -1.085192882491891e+00  -1.064759649061474e+00   2.884363565784340e+00  -3.893335447169159e-05
